IRIDIUM 155             
1 43573U 18061E   25112.89530609 -.00000003  00000+0 -81496-5 0  9996
2 43573  86.3988 232.2562 0001890 100.5481 259.5928 14.34217600353116
IRIDIUM 154             
1 43574U 18061F   25112.94604271  .00000193  00000+0  61987-4 0  9990
2 43574  86.3990 232.3477 0002220  95.3281 264.8168 14.34220020353174
IRIDIUM 163             
1 43575U 18061G   25112.71771226  .00000168  00000+0  53000-4 0  9990
2 43575  86.3989 232.3719 0002127  92.2371 267.9069 14.34218974353117
IRIDIUM 156             
1 43576U 18061H   25112.76211067  .00000425  00000+0  14465-3 0  9995
2 43576  86.3987 232.3595 0002038 105.0984 255.0437 14.34218603353118
IRIDIUM 164             
1 43577U 18061J   25113.78961180  .00000032  00000+0  41941-5 0  9992
2 43577  86.3990 231.9643 0002424  99.9949 260.1520 14.34218131353300
IRIDIUM 159             
1 43578U 18061K   25113.75789936  .00000236  00000+0  77313-4 0  9994
2 43578  86.3987 231.9231 0002316  91.9978 268.1483 14.34218085353263
IRIDIUM 180             
1 43922U 19002A   25112.57133094  .00000041  00000+0  76777-5 0  9998
2 43922  86.4016 169.4036 0002223  91.4629 268.6821 14.34217844328741
IRIDIUM 176             
1 43923U 19002B   25113.73028180  .00001556  00000+0  24279-3 0  9997
2 43923  86.6138 168.9184 0001878  87.6510 272.4923 14.72255733337532
IRIDIUM 168             
1 43924U 19002C   25112.63475617  .00000033  00000+0  47677-5 0  9995
2 43924  86.4019 169.4426 0002367  95.5269 264.6197 14.34217213328699
IRIDIUM 173             
1 43925U 19002D   25112.76160871  .00000064  00000+0  15966-4 0  9992
2 43925  86.4013 169.2958 0002105  92.4241 267.7196 14.34217716328699
IRIDIUM 169             
1 43926U 19002E   25112.64849306  .00000641  00000+0  20290-3 0  9993
2 43926  86.4289 200.9067 0000927 124.4346 235.6940 14.38612751329763
IRIDIUM 172             
1 43927U 19002F   25112.61572928  .00000234  00000+0  76440-4 0  9991
2 43927  86.4015 169.3632 0002427  87.5636 272.5837 14.34217954328682
IRIDIUM 175             
1 43928U 19002G   25113.04545364  .00000669  00000+0  10219-3 0  9997
2 43928  86.1470 124.8690 0002273 116.8279 243.3170 14.72247181337428
IRIDIUM 171             
1 43929U 19002H   25113.71299439  .00000129  00000+0  38827-4 0  9998
2 43929  86.4024 169.1650 0002518 100.5699 259.5781 14.34215820328838
IRIDIUM 170             
1 43930U 19002J   25112.58098900  .00001401  00000+0  21834-3 0  9997
2 43930  86.6146 169.4032 0002037  95.7930 264.3519 14.72239853337379
IRIDIUM 167             
1 43931U 19002K   25112.72989420  .00000428  00000+0  14586-3 0  9994
2 43931  86.4016 169.3344 0002253 105.9366 254.2078 14.34218245328699
IRIDIUM 181             
1 56726U 23068S   25112.76235506  .00000727  00000+0  20995-3 0  9993
2 56726  86.4520 232.3629 0002737 102.9325 257.2182 14.43305526101799
IRIDIUM 177             
1 56727U 23068T   25112.57018254  .00002321  00000+0  30188-3 0  9999
2 56727  86.2008 168.5172 0002499 101.1206 259.0296 14.80239393104143
IRIDIUM 174             
1 56728U 23068U   25112.57580646  .00001749  00000+0  27075-3 0  9993
2 56728  86.6143 169.5177 0001996  94.9208 265.2237 14.72688084104135
IRIDIUM 178             
1 56729U 23068V   25113.70849217  .00001658  00000+0  21489-3 0  9994
2 56729  86.6614 200.5513 0002493  90.5412 269.6095 14.80216762104310
IRIDIUM 179             
1 56730U 23068W   25113.70313225  .00002576  00000+0  33554-3 0  9997
2 56730  86.6837 208.2598 0002077 102.5758 257.5696 14.80236018104311
